OBJECT_NAME,OBJECT_ID,EPOCH,MEAN_MOTION,ECCENTRICITY,INCLINATION,RA_OF_ASC_NODE,ARG_OF_PERICENTER,MEAN_ANOMALY,EPHEMERIS_TYPE,CLASSIFICATION_TYPE,NORAD_CAT_ID,ELEMENT_SET_NO,REV_AT_EPOCH,BSTAR,MEAN_MOTION_DOT,MEAN_MOTION_DDOT
GALAXY 17 (G-17),2007-016B,2026-06-26T22:24:54.370368,1.00271298,.0004597,2.9963,79.7856,19.8064,66.6753,0,U,31307,999,6990,0,-.197E-5,0
YAOGAN-2,2007-019A,2026-06-26T14:29:51.540000,14.82691214,.0019313,98.2638,38.5120,241.9261,117.9999,0,U,31490,999,2901,.10858E-3,.82E-5,0
GLOBALSTAR M069,2007-020C,2026-06-26T20:37:17.520384,12.23471544,.00021151,52.0006,224.7512,169.4544,14.8143,0,U,31573,999,87998,.34803884E-3,-.55E-6,0
GLOBALSTAR M072,2007-020D,2026-06-26T22:54:55.285056,11.91658399,.0001518,51.9937,74.2414,356.2897,89.9658,0,U,31574,999,87614,-.76354299E-4,-.9E-6,0
COSMO-SKYMED 1,2007-023A,2026-06-26T23:02:17.564928,14.97151672,.0001793,97.8860,9.8981,89.0702,271.0725,0,U,31598,999,3125,.26537978E-3,.3006E-4,0
TERRASAR-X,2007-026A,2026-06-26T14:39:40.525344,15.19154138,.0001614,97.4450,185.1818,89.1456,270.9963,0,U,31698,999,5465,.45154721E-4,.881E-5,0
COSMOS 2428,2007-029A,2026-06-26T20:13:32.500992,14.12927774,.00071285,70.9372,334.2035,116.5231,243.6621,0,U,31792,999,97951,.19906324E-4,-.11E-6,0
SAR-LUPE 2,2007-030A,2026-06-26T23:03:28.266912,15.51593951,.00024904,98.1046,283.6146,181.7242,178.4000,0,U,31797,999,5845,.31940069E-3,.18848E-3,0
WORLDVIEW-1 (WV-1),2007-041A,2026-06-26T22:36:23.782752,15.24369330,.00013222,97.3883,297.5460,343.7153,16.4042,0,U,32060,999,4436,.26998882E-3,.6541E-4,0
INTELSAT 11 (IS-11),2007-044B,2026-06-26T21:30:13.203360,0.99047730,.00030527,3.5904,78.5591,84.3111,157.8282,0,U,32253,999,6854,0,.32E-6,0
WGS F1 (USA 195),2007-046A,2026-06-26T19:11:46.332384,1.00265824,.00007702,0.0284,81.5204,2.9675,75.8694,0,U,32258,999,5243,0,-.256E-5,0
NAVSTAR 60 (USA 196),2007-047A,2026-06-26T04:47:26.923488,2.00554914,.01671038,54.1016,79.6941,87.5760,274.3492,0,U,32260,999,13699,0,-.76E-6,0
GLOBALSTAR M066,2007-048C,2026-06-26T21:28:41.767968,12.30386972,.00056228,51.9610,30.0450,64.3955,309.1585,0,U,32265,999,86142,-.20373096E-3,-.119E-5,0
COSMOS 2433 [GLONASS-M],2007-052A,2026-06-26T07:13:06.780288,2.13104185,.0002876,65.5713,315.6262,196.1254,163.8539,0,U,32275,999,14525,0,-.84E-6,0
COSMOS 2432 [GLONASS-M],2007-052B,2026-06-25T20:30:16.818912,2.13103155,.000744,65.5875,315.7691,328.8615,352.4942,0,U,32276,999,14526,0,-.85E-6,0
YAOGAN-3,2007-055A,2026-06-26T23:51:15.213312,14.90818348,.0001847,97.8156,207.7750,82.6709,277.4719,0,U,32289,999,733,.23984299E-3,.2304E-4,0
SKYNET 5B,2007-056B,2026-06-26T22:56:17.499840,1.00270970,.00034216,5.2763,73.3888,25.8318,185.0074,0,U,32294,999,6829,0,.146E-5,0
ASTRA 4A,2007-057A,2026-06-26T19:25:14.611296,1.00271178,.00026303,0.0185,323.3242,131.7107,116.0003,0,U,32299,999,5174,0,.44E-6,0
COSMO-SKYMED 2,2007-059A,2026-06-26T22:48:05.870016,14.82152873,.00013484,97.8888,1.4064,88.3853,271.7514,0,U,32376,999,345,.62984667E-4,.449E-5,0
RADARSAT-2,2007-061A,2026-06-26T23:22:05.431008,14.29984244,.00012983,98.5779,184.7660,85.6591,274.4739,0,U,32382,999,96735,.94819415E-4,.201E-5,0
NAVSTAR 61 (USA 199),2007-062A,2026-06-26T11:27:26.819136,2.00560747,.00358449,55.0241,273.7790,166.2387,161.8348,0,U,32384,999,13569,0,-.48E-6,0
HORIZONS-2,2007-063B,2026-06-26T22:28:09.058944,1.00271319,.00041702,2.6269,80.5145,6.5483,91.2267,0,U,32388,999,6791,0,-.244E-5,0
COSMOS 2434 [GLONASS-M],2007-065A,2026-06-26T11:39:01.342944,2.13101371,.000125,64.3185,191.6023,327.1544,64.2860,0,U,32393,999,14397,0,.105E-5,0
COSMOS 2436 [GLONASS-M],2007-065C,2026-06-26T12:10:30.511776,2.13100188,.0017278,64.3272,191.6738,353.6044,186.8858,0,U,32395,999,14392,0,.105E-5,0
THURAYA-3,2008-001A,2026-06-25T16:20:37.371840,1.00009028,.00018904,6.0035,35.8134,142.0341,49.0680,0,U,32404,999,6757,0,.26E-6,0
THOR 5,2008-006A,2026-06-26T22:48:29.680128,1.00271393,.00027232,0.0407,253.5009,204.7821,158.1521,0,U,32487,999,6741,0,.2E-7,0
AMC-14,2008-011A,2026-06-24T02:42:00.534816,1.00356055,.00451778,24.0123,20.4352,7.5191,352.4523,0,U,32708,999,6823,0,-.74E-6,0
NAVSTAR 62 (USA 201),2008-012A,2026-06-26T02:38:34.838880,2.00572724,.0211415,54.4985,149.5683,247.9482,109.7699,0,U,32711,999,13393,0,.44E-6,0
DIRECTV 11,2008-013A,2026-06-26T15:30:15.073056,1.00269115,.00003209,0.0095,299.9207,118.2566,349.9641,0,U,32729,999,4568,0,-.114E-5,0
ICO G1,2008-016A,2026-06-26T23:26:09.521376,1.00272611,.00023044,5.5291,36.1024,46.6680,91.0087,0,U,32763,999,6664,0,-.166E-5,0
VINASAT-1,2008-018A,2026-06-26T21:44:04.374816,1.00272697,.00015592,0.0218,309.4472,150.3610,273.1650,0,U,32767,999,6668,0,-.317E-5,0
STAR ONE C2,2008-018B,2026-06-26T23:11:12.232320,1.00271066,.00029719,1.2656,82.3894,22.5684,92.9267,0,U,32768,999,6675,0,-.266E-5,0
CARTOSAT-2A,2008-021A,2026-06-26T23:45:44.371296,14.79253255,.00133749,97.7635,226.3641,80.5378,279.7345,0,U,32783,999,98025,.12320764E-3,.867E-5,0
CUTE-1.7+APD II (CO-65),2008-021C,2026-06-26T22:14:48.312384,15.09541243,.00087647,97.8272,159.5484,8.9415,351.1968,0,U,32785,999,98666,.31261277E-3,.4953E-4,0
CANX-2,2008-021H,2026-06-26T22:11:27.974976,15.05685256,.00107721,97.8635,157.8920,22.2102,337.9588,0,U,32790,999,98627,.26290531E-3,.3739E-4,0
SEEDS II (CO-66),2008-021J,2026-06-26T22:15:12.621888,15.33073710,.00005557,97.7516,176.2919,212.5247,147.5960,0,U,32791,999,98878,.61567793E-3,.19616E-3,0
AMOS-3,2008-022A,2026-06-26T23:02:16.926432,1.00482393,.00025163,0.4804,86.1120,66.1508,154.5922,0,U,32794,999,8243,0,.12E-5,0
GALAXY 18 (G-18),2008-024A,2026-06-26T22:13:55.424352,1.00269935,.00032522,0.0257,17.2924,82.2711,25.9666,0,U,32951,999,4595,0,0,0
YUBILEINY (RS30),2008-025A,2026-06-26T22:00:10.234368,12.43179959,.00185606,82.5046,349.3870,291.4777,68.4323,0,U,32953,999,82090,.13811227E-3,.29E-6,0
COSMOS 2437,2008-025B,2026-06-26T23:19:59.189376,12.42759737,.00198046,82.5026,351.3827,309.9417,205.7620,0,U,32954,999,82058,.13139855E-3,.28E-6,0
COSMOS 2438,2008-025C,2026-06-26T22:21:57.974400,12.43369693,.00203107,82.5027,346.7610,283.7913,76.0907,0,U,32955,999,82104,.47153392E-3,.75E-6,0
COSMOS 2439,2008-025D,2026-06-26T21:50:39.112224,12.43070860,.00200009,82.5077,351.7508,295.0685,64.8318,0,U,32956,999,82092,.41674565E-3,.68E-6,0
FENGYUN 3A,2008-026A,2026-06-26T20:16:08.179104,14.19573116,.00098624,98.6885,118.4972,98.8001,261.4293,0,U,32958,999,93677,.51943769E-4,.66E-6,0
ZHONGXING-9,2008-028A,2026-06-26T21:32:50.451360,1.00271319,.00040632,0.7943,85.2541,354.4246,250.9365,0,U,33051,999,6613,0,-.238E-5,0
FGRST (GLAST),2008-029A,2026-06-26T14:12:19.893888,15.23982538,.0008421,25.5805,139.1753,78.3295,281.8188,0,U,33053,999,99727,.90722E-4,.2598E-4,0
SKYNET 5C,2008-030A,2026-06-26T22:43:46.835904,1.00271884,.00044493,3.8135,76.9305,25.4045,135.8834,0,U,33055,999,6605,0,-.132E-5,0
TURKSAT 3A,2008-030B,2026-06-26T05:54:34.667712,1.00275850,.0005283,0.0337,69.2786,10.2790,325.4810,0,U,33056,999,5244,0,.157E-5,0
ECHOSTAR 11,2008-035A,2026-06-26T23:26:00.924576,1.00272032,.00027412,1.0302,84.0896,357.5195,75.1806,0,U,33207,999,5131,0,-.47E-6,0
SUPERBIRD-C2,2008-038A,2026-06-26T21:45:11.766816,1.00272686,.00064748,2.3857,81.1520,28.3585,267.8159,0,U,33274,999,10582,0,-.297E-5,0
INMARSAT 4-F3,2008-039A,2026-06-26T15:30:30.048768,1.00272185,.00025783,4.3005,31.6497,67.4772,310.2663,0,U,33278,999,4664,0,-.133E-5,0
HUANJING 1A (HJ-1A),2008-041A,2026-06-26T22:38:17.784096,14.84008612,.00205641,97.6683,163.4042,104.8028,255.5467,0,U,33320,999,95985,.1601078E-3,.1286E-4,0
HUANJING 1B (HJ-1B),2008-041B,2026-06-26T23:37:18.534720,14.83332079,.00369381,97.6517,166.5854,149.0131,211.3274,0,U,33321,999,95986,.12428604E-3,.978E-5,0
GEOEYE 1,2008-042A,2026-06-26T22:05:48.667488,14.64634303,.00052536,98.1335,251.7297,41.4688,318.6912,0,U,33331,999,95157,.66413483E-4,.305E-5,0
NIMIQ 4,2008-044A,2026-06-26T22:25:46.785792,1.00269124,.00019129,0.0286,39.8703,58.6233,71.0362,0,U,33373,999,6508,0,0,0
GALAXY 19 (G-19),2008-045A,2026-06-26T13:48:11.644128,1.00271325,.0002899,0.0430,260.8617,203.0776,280.8068,0,U,33376,999,6499,0,-.128E-5,0
THEOS,2008-049A,2026-06-26T23:21:57.398400,14.20134424,.00011839,98.5574,234.9394,82.0190,278.1121,0,U,33396,999,91935,.24956795E-4,.11E-6,0
SHIJIAN-6 03A (SJ-6 03A),2008-053A,2026-06-27T00:10:55.103808,15.17257627,.00105478,97.8414,211.6693,347.3547,12.7419,0,U,33408,999,96445,.30557036E-3,.6018E-4,0
SHIJIAN-6 03B (SJ-6 03B),2008-053B,2026-06-27T00:15:35.095968,15.04328514,.00196108,97.8561,198.0643,11.6972,348.4705,0,U,33409,999,96422,.15670141E-3,.2127E-4,0
COSMO-SKYMED 3,2008-054A,2026-06-26T21:41:36.455424,15.07003968,.00144624,97.8274,36.6363,230.5540,129.4408,0,U,33412,999,95840,.21341506E-3,.3136E-4,0
SHIYAN-3 (SY-3),2008-056A,2026-06-26T08:38:22.214112,14.30805083,.0014817,98.6062,203.8136,106.2593,254.0221,0,U,33433,999,92011,.63809E-4,.124E-5,0
CHUANGXIN 1-02 (CX-1-02),2008-056B,2026-06-26T22:51:23.137632,14.30155456,.00154217,98.6137,204.1216,109.7017,250.5830,0,U,33434,999,92001,.10197658E-3,.22E-5,0
ASTRA 1M,2008-057A,2026-06-26T22:54:40.156416,1.00269440,.00049389,0.3215,82.6353,26.2641,169.2409,0,U,33436,999,4583,0,.132E-5,0
YAOGAN-4,2008-061A,2026-06-26T19:32:30.189120,14.83218040,.00153269,97.9307,111.2534,43.8508,316.3919,0,U,33446,999,94709,.13180096E-3,.1025E-4,0
EUTELSAT HOTBIRD 13C,2008-065A,2026-06-26T19:09:31.548384,1.00273371,.00035141,2.9746,79.0858,13.3914,59.5088,0,U,33459,999,4744,0,-.274E-5,0
GOSAT (IBUKI),2009-002A,2026-06-26T21:19:18.198048,14.67538179,.00013496,98.0902,288.8485,83.3538,276.7820,0,U,33492,999,93288,-.5349742E-5,-.78E-6,0
STARS (KUKAI),2009-002G,2026-06-26T20:26:55.187232,14.95808095,.00095055,98.1542,125.5551,132.1299,228.0730,0,U,33498,999,93992,.36914991E-3,.4061E-4,0
KKS-1 (KISEKI),2009-002H,2026-06-26T21:42:02.452320,14.83147056,.00063927,98.1187,100.5005,257.3413,102.7086,0,U,33499,999,93763,.16711793E-3,.1307E-4,0
